[{"OBJECT_NAME":"STARLINK-31159","OBJECT_ID":"2024-005N","EPOCH":"2026-03-09T11:08:29.016672","MEAN_MOTION":15.26737472,"ECCENTRICITY":9.226e-5,"INCLINATION":42.9962,"RA_OF_ASC_NODE":220.6332,"ARG_OF_PERICENTER":252.9268,"MEAN_ANOMALY":107.1482,"EPHEMERIS_TYPE":0,"CLASSIFICATION_TYPE":"U","NORAD_CAT_ID":58740,"ELEMENT_SET_NO":999,"REV_AT_EPOCH":12050,"BSTAR":-2.161951e-6,"MEAN_MOTION_DOT":-3.17e-6,"MEAN_MOTION_DDOT":0},{"OBJECT_NAME":"OBJECT D","OBJECT_ID":"2025-197D","EPOCH":"2026-03-09T23:30:56.303712","MEAN_MOTION":15.25287442,"ECCENTRICITY":0.00144425,"INCLINATION":97.4091,"RA_OF_ASC_NODE":257.3677,"ARG_OF_PERICENTER":3.398,"MEAN_ANOMALY":356.7353,"EPHEMERIS_TYPE":0,"CLASSIFICATION_TYPE":"U","NORAD_CAT_ID":65491,"ELEMENT_SET_NO":999,"REV_AT_EPOCH":2822,"BSTAR":0.00037200129,"MEAN_MOTION_DOT":9.321e-5,"MEAN_MOTION_DDOT":0}]
